{"spkid": "50363371", "covariance": {"epoch": "2457469.5", "labels": ["e", "q", "tp", "node", "peri", "i"], "elements": [{"label": "e", "sigma": 4.16867019567928e-09, "name": "e", "value": ".3382082408815902", "title": "eccentricity", "units": null}, {"units": "au", "value": ".9912147078247778", "title": "perihelion distance", "name": "q", "sigma": 6.18670761972735e-09, "label": "q"}, {"title": "time of perihelion passage", "value": "2457432.337438388336", "units": "TDB", "name": "tp", "sigma": 8.00912803216569e-06, "label": "tp"}, {"title": "longitude of the ascending node", "value": "257.9280024375826", "units": "deg", "name": "om", "sigma": 6.59433597161567e-06, "label": "node"}, {"label": "peri", "title": "argument of perihelion", "value": "184.1299684518222", "units": "deg", "name": "w", "sigma": 1.17085386412093e-05}, {"label": "i", "sigma": 2.26731881639673e-06, "name": "i", "units": "deg", "title": "inclination", "value": "3.637177042534532"}], "data": [["1.737781120034474E-17", "-2.578207182703846E-17", "-1.156667039966306E-14", "8.489272390463385E-15", "-2.147197743927624E-14", "1.145017577567394E-15"], ["-2.578207182703846E-17", "3.827535117199248E-17", "1.752792556437949E-14", "-1.240080134122279E-14", "3.205949926321131E-14", "-1.765140393993943E-15"], ["-1.156667039966306E-14", "1.752792556437949E-14", "6.414613183562224E-11", "-6.031707051743428E-12", "7.771864451815881E-11", "-5.740022725015854E-12"], ["8.489272390463385E-15", "-1.240080134122279E-14", "-6.031707051743428E-12", "4.348526690654442E-11", "-5.013413963957493E-11", "7.57340648515421E-12"], ["-2.147197743927624E-14", "3.205949926321131E-14", "7.771864451815881E-11", "-5.013413963957493E-11", "1.370898771126923E-10", "-1.373772867240114E-11"], ["1.145017577567394E-15", "-1.765140393993943E-15", "-5.740022725015854E-12", "7.57340648515421E-12", "-1.373772867240114E-11", "5.140734615186666E-12"]]}, "elements": [{"units": null, "value": ".3411872851176044", "title": "eccentricity", "sigma": "7.5445E-9", "name": "e", "label": "e"}, {"units": "au", "value": "1.504508763253893", "title": "semi-major axis", "name": "a", "sigma": "8.779E-9", "label": "a"}, {"sigma": "6.0311E-9", "name": "q", "title": "perihelion distance", "value": ".9911895028836529", "units": "au", "label": "q"}, {"units": "deg", "title": "inclination; angle with respect to x-y ecliptic plane", "value": "3.517663465043698", "sigma": "2.2859E-6", "name": "i", "label": "i"}, {"label": "node", "sigma": "6.8479E-6", "name": "om", "title": "longitude of the ascending node", "value": "257.4804778068639", "units": "deg"}, {"label": "peri", "sigma": "1.1532E-5", "name": "w", "value": "185.1978105013181", "title": "argument of perihelion", "units": "deg"}, {"units": "deg", "value": "214.6883932369909", "title": "mean anomaly", "sigma": "1.1993E-5", "name": "ma", "label": "M"}, {"name": "tp", "sigma": "2.4766E-5", "units": "TDB", "title": "time of perihelion passage", "value": "2461472.574796873133", "label": "tp"}, {"value": "674.047511112248", "title": "sidereal orbital period", "units": "d", "name": "per", "sigma": "5.8997E-6", "label": "period"}, {"label": "n", "units": "deg/d", "value": ".5340869806135221", "title": "mean motion", "name": "n", "sigma": "4.6747E-9"}, {"units": "au", "value": "2.017828023624134", "title": "aphelion distance", "name": "ad", "sigma": "1.1774E-8", "label": "Q"}], "epoch": "2461200.5"}